HST                     
1 20580U 90037B   23004.16232265  .00003743  00000+0  20456-3 0  9996
2 20580  28.4701 278.0302 0002609  46.0837  69.6387 15.11542356596604
POLAR                   
1 23802U 96013A   23003.26235433  .00000263  00000+0  00000+0 0  9999
2 23802  78.8235 239.6629 5769455 252.0209  39.7986  1.29847031128488
SWAS                    
1 25560U 98071A   23003.88890354  .00001522  00000+0  14536-3 0  9997
2 25560  69.8969 200.9149 0007156 353.6361   6.4704 14.95513386307981
CXO                     
1 25867U 99040B   22350.50688168  .00000592  00000+0  00000+0 0  9998
2 25867  40.5464 218.6105 8981371 245.2549   0.0091  0.37815769 12485
XMM-NEWTON              
1 25989U 99066A   23004.93467430  .00000041  00000+0  00000+0 0  9991
2 25989  69.6017 301.1475 5757168  84.4491   0.2687  0.50130839 16698
TERRA                   
1 25994U 99068A   23004.58236322  .00000559  00000+0  12882-3 0  9993
2 25994  98.1165  76.8799 0001282 170.7693 295.9024 14.58961890225802
CLUSTER II-FM7 (SAMBA)  
1 26410U 00041A   23005.14237500  .00000563  00000+0  00000+0 0  9992
2 26410 135.2023 349.9291 6112637 202.9790 359.2926  0.44275067 14706
CLUSTER II-FM6 (SALSA)  
1 26411U 00041B   23005.12600293  .00001150  00000+0  00000+0 0  9997
2 26411 138.6738 355.4693 7805238 208.9067 359.4665  0.44226904 14769
CLUSTER II-FM5 (RUMBA)  
1 26463U 00045A   23005.13091985  .00001155  00000+0  00000+0 0  9996
2 26463 142.0479 355.7032 7304225 209.8252 359.3408  0.44225636 27043
CLUSTER II-FM8 (TANGO)  
1 26464U 00045B   23005.13966442  .00000563  00000+0  00000+0 0  9998
2 26464 135.1932 349.9150 6115058 202.9677 359.2866  0.44219348 14715
ODIN                    
1 26702U 01007A   23004.55054479  .00005382  00000+0  32128-3 0  9999
2 26702  97.5129  20.7350 0009392 324.4717  35.5887 15.11504962196635
TIMED                   
1 26998U 01055B   23004.35692099  .00001112  00000+0  12201-3 0  9990
2 26998  74.0714 239.2962 0000435 294.1248  65.9887 14.89058529142904
RHESSI                  
1 27370U 02004A   23004.20595381  .00064606  00000+0  86436-3 0  9998
2 27370  38.0245 180.3949 0006981  46.4908 313.6450 15.56943930157754
INTEGRAL                
1 27540U 02048A   23003.43617333 -.00000097  00000+0  00000+0 0  9995
2 27540  80.4276  47.6616 8839988 295.2390 211.4550  0.37567376 21892
CORIOLIS                
1 27640U 03001A   23004.47453611  .00000135  00000+0  85251-4 0  9996
2 27640  98.7167  15.2163 0013306 237.2499 244.0168 14.19183209 35490
SORCE                   
1 27651U 03004A   23004.51743643  .00002820  00000+0  29600-3 0  9991
2 27651  39.9927 174.3198 0020926  86.6237 273.6946 14.90602381 83075
MOST                    
1 27843U 03031D   23004.49443975  .00000117  00000+0  74364-4 0  9991
2 27843  98.7079  14.1468 0008973 290.5825  69.4389 14.20728752 11805
SCISAT 1                
1 27858U 03036A   23004.45215882  .00000911  00000+0  13171-3 0  9992
2 27858  73.9323 147.1772 0007037 146.7304 213.4314 14.77785988 45124
SWIFT                   
1 28485U 04047A   23004.07876675  .00007271  00000+0  42996-3 0  9996
2 28485  20.5584 340.5560 0009927 325.4722  34.5067 15.07972104993853
CLOUDSAT                
1 29107U 06016A   23004.53049321  .00000476  00000+0  10178-3 0  9994
2 29107  98.3556 331.8652 0004265  50.8453 309.3127 14.63335697888430
CALIPSO                 
1 29108U 06016B   23004.53024204  .00001471  00000+0  29436-3 0  9991
2 29108  98.3536 331.3653 0001285  86.2726 273.8623 14.63346110888427
HINODE (SOLAR-B)        
1 29479U 06041A   23004.45890217  .00000785  00000+0  15512-3 0  9993
2 29479  98.1139  22.0193 0017486 315.6602  44.3200 14.65050636870183
SJ-6C                   
1 29505U 06046A   23004.48417370  .00003907  00000+0  34399-3 0  9999
2 29505  97.7648  29.1716 0005088 151.3515 208.7996 14.97058301882762
SJ-6D                   
1 29506U 06046B   23004.57874313  .00000545  00000+0  55922-4 0  9995
2 29506  97.7846  29.2036 0000595 282.4081  77.7061 14.94407705882176
AGILE                   
1 31135U 07013A   23004.51622180  .00020435  00000+0  41722-3 0  9990
2 31135   2.4687  81.6938 0008654  31.0024 329.0541 15.42910349508005
AIM                     
1 31304U 07015A   23004.59165012  .00018909  00000+0  83543-3 0  9994
2 31304  97.8629 296.8358 0005880  54.8491 305.3293 15.21762585861739
FGRST (GLAST)           
1 33053U 08029A   23004.33062748  .00002600  00000+0  12711-3 0  9997
2 33053  25.5817 236.7926 0011817 351.0426   8.9898 15.12877804804140
WISE                    
1 36119U 09071A   23004.05898951  .00008803  00000+0  24896-3 0  9991
2 36119  97.2186  39.5822 0001288   2.0753 358.0497 15.36547486726279
SDO                     
1 36395U 10005A   23004.29000875 -.00000086  00000+0  00000+0 0  9995
2 36395  32.0506 105.9841 0002466 213.8937 146.0335  1.00269568 47430
CRYOSAT 2               
1 36508U 10013A   23004.63748253  .00000232  00000+0  56839-4 0  9995
2 36508  92.0259 332.8264 0002126 300.3667  59.7330 14.51905493675360
X-SAT                   
1 37389U 11015C   23004.47366945  .00000074  00000+0  49284-4 0  9992
2 37389  98.3156  32.3296 0015379  83.3477 276.9466 14.24465200608828
GCOM-W1 (SHIZUKU)       
1 38337U 12025A   23004.58613847  .00000744  00000+0  17510-3 0  9996
2 38337  98.2249 307.2284 0001257  81.3288  91.6989 14.57123007565605
NUSTAR                  
1 38358U 12031A   23004.15351039  .00003632  00000+0  29178-3 0  9993
2 38358   6.0282 342.5614 0011275 353.2924   6.7054 14.90258995574837
NEOSSAT                 
1 39089U 13009D   23004.38299747  .00000276  00000+0  11233-3 0  9997
2 39089  98.4108 200.5936 0012044  44.0534 316.1609 14.34744786516025
BRITE-AUSTRIA           
1 39091U 13009F   23004.47173439  .00000233  00000+0  96138-4 0  9990
2 39091  98.3932 201.4762 0011252  43.9067 316.3012 14.35351348516263
IRIS                    
1 39197U 13033A   23004.46279728  .00001583  00000+0  21676-3 0  9994
2 39197  97.9666 193.5961 0028479  98.1383 262.3061 14.79640698513698
HISAKI (SPRINT-A)       
1 39253U 13049A   23004.47839611  .00000154  00000+0  11694-3 0  9990
2 39253  29.7191 143.1708 0137228 246.3112 112.3006 13.55302754460399
CASSIOPE                
1 39265U 13055A   23004.53563544  .00016994  00000+0  43188-3 0  9998
2 39265  80.9627  53.3498 0601018  80.1482 286.6987 14.44273573481290
STSAT-3                 
1 39422U 13066G   23004.45018022  .00002380  00000+0  24445-3 0  9991
2 39422  97.4767   3.9120 0021893 335.4071  24.6079 14.91104143495782
SWARM B                 
1 39451U 13067A   23004.54892304  .00003419  00000+0  15105-3 0  9994
2 39451  87.7509   1.1486 0002630  88.9641 271.1906 15.21400739491492
SWARM A                 
1 39452U 13067B   23004.55486827  .00007361  00000+0  22137-3 0  9998
2 39452  87.3605 152.6775 0002497  74.5029 285.6499 15.34208899512747
SWARM C                 
1 39453U 13067C   23004.55477365  .00007323  00000+0  22020-3 0  9995
2 39453  87.3455 151.7402 0002495  75.0784 285.0744 15.34209247512701
BRITE-CA1 (TORONTO)     
1 40020U 14033L   23004.40086086  .00000861  00000+0  15275-3 0  9995
2 40020  97.8004 158.4865 0085980 343.5636  16.2785 14.67353553457123
OCO 2                   
1 40059U 14035A   23004.61843203  .00000634  00000+0  15080-3 0  9996
2 40059  98.2248 307.9821 0001337  93.9917 266.1434 14.57122810452632
BRITE-PL2 (HEWELIUSZ)   
1 40119U 14049B   23004.22854830  .00001696  00000+0  20175-3 0  9993
2 40119  97.8837 102.8564 0015947 308.0982  51.8794 14.85626247453811
RESURS P2               
1 40360U 14087A   23004.56761515  .00008954  00000+0  23222-3 0  9997
2 40360  97.1956  90.6311 0010347  83.6526  29.2749 15.39176907449162
MMS 1                   
1 40482U 15011A   23003.65200280 -.00001555  00000+0  00000+0 0  9992
2 40482  29.5241  87.5630 8928602  72.0460  88.8239  0.28517311 13871
MMS 2                   
1 40483U 15011B   23003.65894725 -.00001556  00000+0  00000+0 0  9997
2 40483  29.5203  87.5797 8928217  72.0224  89.5504  0.28518153 13939
MMS 3                   
1 40484U 15011C   23003.58255836 -.00001547  00000+0  00000+0 0  9994
2 40484  29.5242  87.5628 8928397  72.0347  81.7243  0.28516585 13842
MMS 4                   
1 40485U 15011D   23003.67005836 -.00001558  00000+0  00000+0 0  9990
2 40485  29.5228  87.5723 8929459  72.0308  90.6924  0.28518308 13828
ASTROSAT                
1 40930U 15052A   23004.05120554  .00001654  00000+0  14076-3 0  9996
2 40930   5.9953 187.3886 0008069 117.5396 242.5552 14.76964785392854
DAMPE                   
1 41173U 15078A   23004.57897424  .00001337  00000+0  56602-4 0  9998
2 41173  97.3926 357.5179 0012565 205.0839 294.6328 15.24856930392222
PISAT                   
1 41784U 16059B   23004.35001418  .00000997  00000+0  19698-3 0  9996
2 41784  97.8918  44.6361 0030304 253.3946 106.3929 14.64184996335085
HXMT (HUIYAN)           
1 42758U 17034A   23004.61342593  .00005231  00000+0  31339-3 0  9995
2 42758  43.0183 321.0381 0008539 106.1075 228.3973 15.11818743306608
FLYING LAPTOP           
1 42831U 17042G   23004.39399165  .00002180  00000+0  21829-3 0  9991
2 42831  97.4002 211.9668 0015037  58.6411 301.6286 14.92273845298051
PICSAT                  
1 43132U 18004X   23004.17116029  .00027801  00000+0  73258-3 0  9997
2 43132  97.3547  85.0817 0007005   8.3330 351.8030 15.38460096277185
ZHANGZHENG-1 (CSES)     
1 43194U 18015C   23004.60377890  .00011722  00000+0  52761-3 0  9991
2 43194  97.5440 140.3704 0014523 125.0088   3.5937 15.21151732273197
ICON                    
1 44628U 19068A   23004.53085742  .00003820  00000+0  33195-3 0  9997
2 44628  26.9899  73.6294 0018285  18.1299 341.9909 14.93796660176655
SALSAT                  
1 46495U 20068K   23004.55403290  .00003921  00000+0  27546-3 0  9992
2 46495  97.7522 311.2741 0015041 321.1356  38.8787 15.05635566124430
IXPE                    
1 49954U 21121A   23003.74620460  .00003749  00000+0  28371-3 0  9991
2 49954   0.2317 351.0121 0010821 358.9934   9.9735 14.92281714 58399
